stk.v.11.0
WrittenBy    formation-sat-exporter

BEGIN Ephemeris
    NumberOfEphemerisPoints 70
    ScenarioEpoch 21 Mar 2026 07:34:25.000000000 UTCG
    InterpolationMethod     Lagrange
    InterpolationOrder      7
    CentralBody             Earth
    CoordinateSystem        TEME
    DistanceUnit            Kilometers

    BEGIN EphemerisTimePosVel
        0.000000000  6.35895437814018e+03 -1.37132821099220e+03  2.41488427865343e+03 -2.78115343309789e+00 -5.08387328844035e-01  7.03233079636485e+00
        10.000000000  6.33080320412859e+03 -1.37631120357578e+03  2.48497295748899e+03 -2.85675535050565e+00 -4.92023128383046e-01  7.00313847751668e+00
        20.000000000  6.30189867194315e+03 -1.38113052702354e+03  2.55476591983108e+03 -2.93201764534191e+00 -4.75600620181216e-01  6.97311266519765e+00
        30.000000000  6.27224421793129e+03 -1.38578561025529e+03  2.62425485909123e+03 -3.00693135766866e+00 -4.59121757047258e-01  6.94225692710909e+00
        40.000000000  6.24184336771897e+03 -1.39027590172073e+03  2.69343150480652e+03 -3.08148756891287e+00 -4.42588498491386e-01  6.91057492981160e+00
        50.000000000  6.21069973579224e+03 -1.39460086946507e+03  2.76228762362484e+03 -3.15567740293020e+00 -4.26002810492257e-01  6.87807043829112e+00
        60.000000000  6.17881702506825e+03 -1.39876000119220e+03  2.83081502028558e+03 -3.22949202706360e+00 -4.09366665263100e-01  6.84474731551316e+00
        70.000000000  6.14619902645572e+03 -1.40275280432571e+03  2.89900553859598e+03 -3.30292265319680e+00 -3.92682041017113e-01  6.81060952196534e+00
        80.000000000  6.11284961840489e+03 -1.40657880606739e+03  2.96685106240274e+03 -3.37596053880258e+00 -3.75950921732122e-01  6.77566111518829e+00
        90.000000000  6.07877276644705e+03 -1.41023755345348e+03  3.03434351655892e+03 -3.44859698798566e+00 -3.59175296914563e-01  6.73990624929491e+00
        100.000000000  6.04397252272365e+03 -1.41372861340854e+03  3.10147486788602e+03 -3.52082335252004e+00 -3.42357161362758e-01  6.70334917447813e+00
        110.000000000  6.00845302550510e+03 -1.41705157279691e+03  3.16823712613099e+03 -3.59263103288072e+00 -3.25498514929589e-01  6.66599423650713e+00
        120.000000000  5.97221849869932e+03 -1.42020603847186e+03  3.23462234491828e+03 -3.66401147926976e+00 -3.08601362284547e-01  6.62784587621214e+00
        130.000000000  5.93527325135002e+03 -1.42319163732233e+03  3.30062262269658e+03 -3.73495619263631e+00 -2.91667712675185e-01  6.58890862895790e+00
        140.000000000  5.89762167712484e+03 -1.42600801631727e+03  3.36623010368029e+03 -3.80545672569077e+00 -2.74699579688030e-01  6.54918712410578e+00
        150.000000000  5.85926825379342e+03 -1.42865484254762e+03  3.43143697878558e+03 -3.87550468391275e+00 -2.57698981008973e-01  6.50868608446462e+00
        160.000000000  5.82021754269540e+03 -1.43113180326590e+03  3.49623548656084e+03 -3.94509172655282e+00 -2.40667938183137e-01  6.46741032573050e+00
        170.000000000  5.78047418819846e+03 -1.43343860592334e+03  3.56061791411157e+03 -4.01420956762792e+00 -2.23608476374301e-01  6.42536475591528e+00
        180.000000000  5.74004291714645e+03 -1.43557497820472e+03  3.62457659801945e+03 -4.08284997691022e+00 -2.06522624123865e-01  6.38255437476409e+00
        190.000000000  5.69892853829770e+03 -1.43754066806068e+03  3.68810392525556e+03 -4.15100478090944e+00 -1.89412413109419e-01  6.33898427316199e+00
        200.000000000  5.65713594175350e+03 -1.43933544373768e+03  3.75119233408758e+03 -4.21866586384842e+00 -1.72279877902915e-01  6.29465963252951e+00
        210.000000000  5.61467009837691e+03 -1.44095909380553e+03  3.81383431498095e+03 -4.28582516863185e+00 -1.55127055728503e-01  6.24958572420750e+00
        220.000000000  5.57153605920193e+03 -1.44241142718253e+03  3.87602241149383e+03 -4.35247469780806e+00 -1.37955986220007e-01  6.20376790883115e+00
        230.000000000  5.52773895483309e+03 -1.44369227315817e+03  3.93774922116568e+03 -4.41860651452375e+00 -1.20768711178147e-01  6.15721163569336e+00
        240.000000000  5.48328399483553e+03 -1.44480148141335e+03  3.99900739639956e+03 -4.48421274347147e+00 -1.03567274327466e-01  6.10992244209742e+00
        250.000000000  5.43817646711567e+03 -1.44573892203825e+03  4.05978964533777e+03 -4.54928557182989e+00 -8.63537210730286e-02  6.06190595269925e+00
        260.000000000  5.39242173729254e+03 -1.44650448554777e+03  4.12008873273100e+03 -4.61381725019659e+00 -6.91300982569009e-02  6.01316787883904e+00
        270.000000000  5.34602524805977e+03 -1.44709808289445e+03  4.17989748080063e+03 -4.67780009351336e+00 -5.18984539144818e-02  5.96371401786269e+00
        280.000000000  5.29899251853848e+03 -1.44751964547905e+03  4.23920877009428e+03 -4.74122648198382e+00 -3.46608370306315e-02  5.91355025243276e+00
        290.000000000  5.25132914362092e+03 -1.44776912515870e+03  4.29801554033444e+03 -4.80408886198336e+00 -1.74192972957241e-02  5.86268254982931e+00
        300.000000000  5.20304079330517e+03 -1.44784649425248e+03  4.35631079125998e+03 -4.86637974696115e+00 -1.75884861586594e-04  5.81111696124056e+00
        310.000000000  5.15413321202081e+03 -1.44775174554475e+03  4.41408758346063e+03 -4.92809171833423e+00  1.70673499026217e-02  5.75885962104355e+00
        320.000000000  5.10461221794572e+03 -1.44748489228592e+03  4.47133903920412e+03 -4.98921742637349e+00  3.43083566545640e-02  5.70591674607471e+00
        330.000000000  5.05448370231405e+03 -1.44704596819078e+03  4.52805834325612e+03 -5.04974959108153e+00  5.15450853228741e-02  5.65229463489067e+00
        340.000000000  5.00375362871552e+03 -1.44643502743451e+03  4.58423874369260e+03 -5.10968100306213e+00  6.87754863513087e-02  5.59799966701923e+00
        350.000000000  4.95242803238602e+03 -1.44565214464608e+03  4.63987355270474e+03 -5.16900452438144e+00  8.59975109428137e-02  5.54303830220058e+00
        360.000000000  4.90051301948967e+03 -1.44469741489939e+03  4.69495614739625e+03 -5.22771308942058e+00  1.03209111303526e-01  5.48741707961899e+00
        370.000000000  4.84801476639241e+03 -1.44357095370182e+03  4.74947997057286e+03 -5.28579970571969e+00  1.20408240886657e-01  5.43114261712489e+00
        380.000000000  4.79493951892720e+03 -1.44227289698047e+03  4.80343853152412e+03 -5.34325745481329e+00  1.37592854636241e-01  5.37422161044756e+00
        390.000000000  4.74129359165096e+03 -1.44080340106588e+03  4.85682540679716e+03 -5.40007949305676e+00  1.54760909230690e-01  5.31666083239846e+00
        400.000000000  4.68708336709322e+03 -1.43916264267338e+03  4.90963424096257e+03 -5.45625905244403e+00  1.71910363326193e-01  5.25846713206539e+00
        410.000000000  4.63231529499669e+03 -1.43735081888198e+03  4.96185874737213e+03 -5.51178944141615e+00  1.89039177799843e-01  5.19964743399734e+00
        420.000000000  4.57699589154987e+03 -1.43536814711083e+03  5.01349270890829e+03 -5.56666404566088e+00  2.06145315992523e-01  5.14020873738048e+00
        430.000000000  4.52113173861156e+03 -1.43321486509330e+03  5.06452997872552e+03 -5.62087632890296e+00  2.23226743951505e-01  5.08015811520506e+00
        440.000000000  4.46472948292769e+03 -1.43089123084858e+03  5.11496448098315e+03 -5.67441983368517e+00  2.40281430672739e-01  5.01950271342350e+00
        450.000000000  4.40779583534030e+03 -1.42839752265088e+03  5.16479021156987e+03 -5.72728818214000e+00  2.57307348342766e-01  4.95824975009973e+00
        460.000000000  4.35033756998885e+03 -1.42573403899628e+03  5.21400123881962e+03 -5.77947507675182e+00  2.74302472580308e-01  4.89640651454989e+00
        470.000000000  4.29236152350405e+03 -1.42290109856708e+03  5.26259170421886e+03 -5.83097430110943e+00  2.91264782677409e-01  4.83398036647442e+00
        480.000000000  4.23387459419415e+03 -1.41989904019381e+03  5.31055582310521e+03 -5.88177972064906e+00  3.08192261840159e-01  4.77097873508182e+00
        490.000000000  4.17488374122386e+03 -1.41672822281480e+03  5.35788788535717e+03 -5.93188528338752e+00  3.25082897428967e-01  4.70740911820390e+00
        500.000000000  4.11539598378604e+03 -1.41338902543338e+03  5.40458225607505e+03 -5.98128502064555e+00  3.41934681198326e-01  4.64327908140297e+00
        510.000000000  4.05541840026619e+03 -1.40988184707266e+03  5.45063337625296e+03 -6.02997304776122e+00  3.58745609536057e-01  4.57859625707078e+00
        520.000000000  3.99495812739986e+03 -1.40620710672800e+03  5.49603576344163e+03 -6.07794356479331e+00  3.75513683702040e-01  4.51336834351947e+00
        530.000000000  3.93402235942307e+03 -1.40236524331696e+03  5.54078401240230e+03 -6.12519085721466e+00  3.92236910066326e-01  4.44760310406462e+00
        540.000000000  3.87261834721592e+03 -1.39835671562706e+03  5.58487279575127e+03 -6.17170929659520e+00  4.08913300346666e-01  4.38130836610051e+00
        550.000000000  3.81075339743935e+03 -1.39418200226098e+03  5.62829686459522e+03 -6.21749334127486e+00  4.25540871845399e-01  4.31449202016763e+00
        560.000000000  3.74843487166529e+03 -1.38984160157957e+03  5.67105104915716e+03 -6.26253753702600e+00  4.42117647685688e-01  4.24716201901268e+00
        570.000000000  3.68567018550022e+03 -1.38533603164239e+03  5.71313025939306e+03 -6.30683651770550e+00  4.58641657047040e-01  4.17932637664099e+00
        580.000000000  3.62246680770223e+03 -1.38066583014594e+03  5.75452948559878e+03 -6.35038500589631e+00  4.75110935400153e-01  4.11099316736174e+00
        590.000000000  3.55883225929187e+03 -1.37583155435958e+03  5.79524379900763e+03 -6.39317781353840e+00  4.91523524740965e-01  4.04217052482584e+00
        600.000000000  3.49477411265653e+03 -1.37083378105907e+03  5.83526835237815e+03 -6.43520984254907e+00  5.07877473823962e-01  3.97286664105663e+00
        610.000000000  3.43029999064888e+03 -1.36567310645782e+03  5.87459838057226e+03 -6.47647608543249e+00  5.24170838394669e-01  3.90308976547370e+00
        620.000000000  3.36541756567918e+03 -1.36035014613579e+03  5.91322920112355e+03 -6.51697162587849e+00  5.40401681421320e-01  3.83284820390976e+00
        630.000000000  3.30013455880165e+03 -1.35486553496612e+03  5.95115621479578e+03 -6.55669163935036e+00  5.56568073325637e-01  3.76215031762066e+00
        640.000000000  3.23445873879508e+03 -1.34921992703944e+03  5.98837490613143e+03 -6.59563139366182e+00  5.72668092212781e-01  3.69100452228889e+00
        650.000000000  3.16839792123768e+03 -1.34341399558591e+03  6.02488084399027e+03 -6.63378624954286e+00  5.88699824100338e-01  3.61941928702041e+00
        660.000000000  3.10195996757640e+03 -1.33744843289492e+03  6.06066968207786e+03 -6.67115166119452e+00  6.04661363146375e-01  3.54740313333516e+00
        670.000000000  3.03515278419068e+03 -1.33132395023262e+03  6.09573715946401e+03 -6.70772317683254e+00  6.20550811876539e-01  3.47496463415124e+00
        680.000000000  2.96798432145089e+03 -1.32504127775709e+03  6.13007910109093e+03 -6.74349643921973e+00  6.36366281410159e-01  3.40211241276286e+00
        690.000000000  2.90046257277149e+03 -1.31860116443130e+03  6.16369141827129e+03 -6.77846718618709e+00  6.52105891685286e-01  3.32885514181234e+00
    END EphemerisTimePosVel
END Ephemeris
